[{"OBJECT_NAME":"LEMUR-2-ANDIS","OBJECT_ID":"2017-042P","EPOCH":"2026-03-09T13:25:33.116448","MEAN_MOTION":15.30557934,"ECCENTRICITY":0.0009101,"INCLINATION":97.3659,"RA_OF_ASC_NODE":249.795,"ARG_OF_PERICENTER":4.3248,"MEAN_ANOMALY":355.807,"EPHEMERIS_TYPE":0,"CLASSIFICATION_TYPE":"U","NORAD_CAT_ID":42838,"ELEMENT_SET_NO":999,"REV_AT_EPOCH":47319,"BSTAR":0.00079875,"MEAN_MOTION_DOT":0.00023598,"MEAN_MOTION_DDOT":0},{"OBJECT_NAME":"STARLINK-34402","OBJECT_ID":"2025-130J","EPOCH":"2026-03-09T08:05:39.797088","MEAN_MOTION":15.30251697,"ECCENTRICITY":8.459e-5,"INCLINATION":53.1585,"RA_OF_ASC_NODE":89.8507,"ARG_OF_PERICENTER":173.3419,"MEAN_ANOMALY":186.7593,"EPHEMERIS_TYPE":0,"CLASSIFICATION_TYPE":"U","NORAD_CAT_ID":64446,"ELEMENT_SET_NO":999,"REV_AT_EPOCH":4065,"BSTAR":0.0016491755,"MEAN_MOTION_DOT":0.00048885,"MEAN_MOTION_DDOT":0}]
