LEMUR-2-ANDIS           
1 42838U 17042P   26068.55941107  .00023598  00000+0  79875-3 0  9998
2 42838  97.3659 249.7950 0009101   4.3248 355.8070 15.30557934473198
STARLINK-34402          
1 64446U 25130J   26068.33726617  .00048885  00000+0  16492-2 0  9998
2 64446  53.1585  89.8507 0000845 173.3419 186.7593 15.30251697 40658
